[{"OBJECT_NAME":"KUIPER-00241","OBJECT_ID":"2025-301S","EPOCH":"2026-03-03T18:00:02.000160","MEAN_MOTION":14.80199567,"ECCENTRICITY":0.00021907,"INCLINATION":51.9012,"RA_OF_ASC_NODE":101.8788,"ARG_OF_PERICENTER":77.8047,"MEAN_ANOMALY":338.7678,"EPHEMERIS_TYPE":0,"CLASSIFICATION_TYPE":"U","NORAD_CAT_ID":67149,"ELEMENT_SET_NO":999,"REV_AT_EPOCH":545,"BSTAR":-0.0067190705,"MEAN_MOTION_DOT":-0.00051381,"MEAN_MOTION_DDOT":0},{"OBJECT_NAME":"KUIPER-00245","OBJECT_ID":"2025-301T","EPOCH":"2026-03-03T07:49:28.579872","MEAN_MOTION":14.79966199,"ECCENTRICITY":4.445e-5,"INCLINATION":51.9018,"RA_OF_ASC_NODE":111.2666,"ARG_OF_PERICENTER":58.691,"MEAN_ANOMALY":301.4096,"EPHEMERIS_TYPE":0,"CLASSIFICATION_TYPE":"U","NORAD_CAT_ID":67150,"ELEMENT_SET_NO":999,"REV_AT_EPOCH":1254,"BSTAR":0.00067727876,"MEAN_MOTION_DOT":4.95e-5,"MEAN_MOTION_DDOT":0},{"OBJECT_NAME":"KUIPER-00246","OBJECT_ID":"2025-301U","EPOCH":"2026-03-03T18:00:02.000160","MEAN_MOTION":15.08335777,"ECCENTRICITY":0.00050915,"INCLINATION":51.8962,"RA_OF_ASC_NODE":95.6147,"ARG_OF_PERICENTER":49.2999,"MEAN_ANOMALY":219.9165,"EPHEMERIS_TYPE":0,"CLASSIFICATION_TYPE":"U","NORAD_CAT_ID":67151,"ELEMENT_SET_NO":999,"REV_AT_EPOCH":577,"BSTAR":-0.0027677157,"MEAN_MOTION_DOT":-0.00043519,"MEAN_MOTION_DDOT":0},{"OBJECT_NAME":"KUIPER-00247","OBJECT_ID":"2025-301V","EPOCH":"2026-03-03T07:13:18.091776","MEAN_MOTION":15.36571319,"ECCENTRICITY":0.00141227,"INCLINATION":51.8628,"RA_OF_ASC_NODE":96.8387,"ARG_OF_PERICENTER":33.9918,"MEAN_ANOMALY":326.1971,"EPHEMERIS_TYPE":0,"CLASSIFICATION_TYPE":"U","NORAD_CAT_ID":67152,"ELEMENT_SET_NO":999,"REV_AT_EPOCH":1274,"BSTAR":0.00089515674,"MEAN_MOTION_DOT":0.00032301,"MEAN_MOTION_DDOT":0},{"OBJECT_NAME":"KUIPER-00248","OBJECT_ID":"2025-301W","EPOCH":"2026-03-03T08:01:23.615040","MEAN_MOTION":15.37157242,"ECCENTRICITY":0.00112052,"INCLINATION":51.867,"RA_OF_ASC_NODE":96.356,"ARG_OF_PERICENTER":21.1403,"MEAN_ANOMALY":339.0044,"EPHEMERIS_TYPE":0,"CLASSIFICATION_TYPE":"U","NORAD_CAT_ID":67153,"ELEMENT_SET_NO":999,"REV_AT_EPOCH":1292,"BSTAR":0.0010935323,"MEAN_MOTION_DOT":0.00040303,"MEAN_MOTION_DDOT":0},{"OBJECT_NAME":"KUIPER-00249","OBJECT_ID":"2025-301X","EPOCH":"2026-03-03T07:23:49.003584","MEAN_MOTION":15.37818837,"ECCENTRICITY":0.00102364,"INCLINATION":51.8637,"RA_OF_ASC_NODE":96.1702,"ARG_OF_PERICENTER":22.5516,"MEAN_ANOMALY":337.5919,"EPHEMERIS_TYPE":0,"CLASSIFICATION_TYPE":"U","NORAD_CAT_ID":67154,"ELEMENT_SET_NO":999,"REV_AT_EPOCH":1275,"BSTAR":0.0014940659,"MEAN_MOTION_DOT":0.00056514,"MEAN_MOTION_DDOT":0},{"OBJECT_NAME":"KUIPER-00250","OBJECT_ID":"2025-301Y","EPOCH":"2026-03-03T18:00:02.000160","MEAN_MOTION":15.01205243,"ECCENTRICITY":0.00088784,"INCLINATION":51.9146,"RA_OF_ASC_NODE":96.9221,"ARG_OF_PERICENTER":31.9281,"MEAN_ANOMALY":317.0013,"EPHEMERIS_TYPE":0,"CLASSIFICATION_TYPE":"U","NORAD_CAT_ID":67155,"ELEMENT_SET_NO":999,"REV_AT_EPOCH":562,"BSTAR":-0.035657928,"MEAN_MOTION_DOT":-0.00435994,"MEAN_MOTION_DDOT":0},{"OBJECT_NAME":"KUIPER-00251","OBJECT_ID":"2025-301Z","EPOCH":"2026-03-03T10:54:16.914816","MEAN_MOTION":15.37339999,"ECCENTRICITY":0.00111547,"INCLINATION":51.8645,"RA_OF_ASC_NODE":95.6544,"ARG_OF_PERICENTER":25.0237,"MEAN_ANOMALY":335.1288,"EPHEMERIS_TYPE":0,"CLASSIFICATION_TYPE":"U","NORAD_CAT_ID":67156,"ELEMENT_SET_NO":999,"REV_AT_EPOCH":1296,"BSTAR":0.00069221663,"MEAN_MOTION_DOT":0.00025468,"MEAN_MOTION_DDOT":0},{"OBJECT_NAME":"KUIPER-00252","OBJECT_ID":"2025-301AA","EPOCH":"2026-03-03T08:12:03.693888","MEAN_MOTION":15.37074925,"ECCENTRICITY":0.00125429,"INCLINATION":51.8654,"RA_OF_ASC_NODE":96.3881,"ARG_OF_PERICENTER":30.1775,"MEAN_ANOMALY":329.9932,"EPHEMERIS_TYPE":0,"CLASSIFICATION_TYPE":"U","NORAD_CAT_ID":67157,"ELEMENT_SET_NO":999,"REV_AT_EPOCH":1275,"BSTAR":0.0005008672,"MEAN_MOTION_DOT":0.00018151,"MEAN_MOTION_DDOT":0},{"OBJECT_NAME":"KUIPER-00261","OBJECT_ID":"2025-301AB","EPOCH":"2026-03-03T18:00:02.000160","MEAN_MOTION":14.98969433,"ECCENTRICITY":0.00100451,"INCLINATION":51.8937,"RA_OF_ASC_NODE":97.1845,"ARG_OF_PERICENTER":41.7325,"MEAN_ANOMALY":62.5028,"EPHEMERIS_TYPE":0,"CLASSIFICATION_TYPE":"U","NORAD_CAT_ID":67158,"ELEMENT_SET_NO":999,"REV_AT_EPOCH":503,"BSTAR":-0.14614966,"MEAN_MOTION_DOT":-0.01642232,"MEAN_MOTION_DDOT":0},{"OBJECT_NAME":"KUIPER-00265","OBJECT_ID":"2025-301AC","EPOCH":"2026-03-03T07:45:34.756416","MEAN_MOTION":14.7996634,"ECCENTRICITY":6.656e-5,"INCLINATION":51.902,"RA_OF_ASC_NODE":113.7637,"ARG_OF_PERICENTER":39.6252,"MEAN_ANOMALY":320.4758,"EPHEMERIS_TYPE":0,"CLASSIFICATION_TYPE":"U","NORAD_CAT_ID":67159,"ELEMENT_SET_NO":999,"REV_AT_EPOCH":1254,"BSTAR":0.00064842631,"MEAN_MOTION_DOT":4.729e-5,"MEAN_MOTION_DDOT":0},{"OBJECT_NAME":"KUIPER-00159","OBJECT_ID":"2026-030A","EPOCH":"2026-03-03T21:43:40.096416","MEAN_MOTION":15.35461675,"ECCENTRICITY":0.00044916,"INCLINATION":51.8843,"RA_OF_ASC_NODE":247.0566,"ARG_OF_PERICENTER":29.1743,"MEAN_ANOMALY":330.9493,"EPHEMERIS_TYPE":0,"CLASSIFICATION_TYPE":"U","NORAD_CAT_ID":67764,"ELEMENT_SET_NO":999,"REV_AT_EPOCH":420,"BSTAR":0.0011208268,"MEAN_MOTION_DOT":0.0003904,"MEAN_MOTION_DDOT":0},{"OBJECT_NAME":"KUIPER-00160","OBJECT_ID":"2026-030B","EPOCH":"2026-03-03T21:45:10.337760","MEAN_MOTION":15.35310997,"ECCENTRICITY":0.00048528,"INCLINATION":51.8809,"RA_OF_ASC_NODE":247.0561,"ARG_OF_PERICENTER":39.3934,"MEAN_ANOMALY":320.7404,"EPHEMERIS_TYPE":0,"CLASSIFICATION_TYPE":"U","NORAD_CAT_ID":67765,"ELEMENT_SET_NO":999,"REV_AT_EPOCH":420,"BSTAR":0.0010740981,"MEAN_MOTION_DOT":0.00037208,"MEAN_MOTION_DDOT":0},{"OBJECT_NAME":"KUIPER-00177","OBJECT_ID":"2026-030C","EPOCH":"2026-03-03T21:28:56.012736","MEAN_MOTION":15.36245243,"ECCENTRICITY":9.603e-5,"INCLINATION":51.883,"RA_OF_ASC_NODE":246.9879,"ARG_OF_PERICENTER":12.186,"MEAN_ANOMALY":347.915,"EPHEMERIS_TYPE":0,"CLASSIFICATION_TYPE":"U","NORAD_CAT_ID":67766,"ELEMENT_SET_NO":999,"REV_AT_EPOCH":420,"BSTAR":0.0011565684,"MEAN_MOTION_DOT":0.00041333,"MEAN_MOTION_DDOT":0},{"OBJECT_NAME":"KUIPER-00178","OBJECT_ID":"2026-030D","EPOCH":"2026-03-03T21:47:34.222272","MEAN_MOTION":15.35249761,"ECCENTRICITY":0.00058407,"INCLINATION":51.8828,"RA_OF_ASC_NODE":247.071,"ARG_OF_PERICENTER":30.6817,"MEAN_ANOMALY":329.451,"EPHEMERIS_TYPE":0,"CLASSIFICATION_TYPE":"U","NORAD_CAT_ID":67767,"ELEMENT_SET_NO":999,"REV_AT_EPOCH":420,"BSTAR":0.00094955279,"MEAN_MOTION_DOT":0.0003277,"MEAN_MOTION_DDOT":0},{"OBJECT_NAME":"KUIPER-00180","OBJECT_ID":"2026-030E","EPOCH":"2026-03-03T22:27:05.713920","MEAN_MOTION":15.32146339,"ECCENTRICITY":0.00147208,"INCLINATION":51.8795,"RA_OF_ASC_NODE":247.241,"ARG_OF_PERICENTER":52.0044,"MEAN_ANOMALY":308.2267,"EPHEMERIS_TYPE":0,"CLASSIFICATION_TYPE":"U","NORAD_CAT_ID":67768,"ELEMENT_SET_NO":999,"REV_AT_EPOCH":420,"BSTAR":0.00069664256,"MEAN_MOTION_DOT":0.00021702,"MEAN_MOTION_DDOT":0}]
